ONEWEB-0306             
1 49188U 21083C   23265.76121886  .00000047  00000+0  86701-4 0  9997
2 49188  87.9228 174.0383 0001778  84.8132 275.3203 13.18686287 98439
ONEWEB-0307             
1 49189U 21083D   23265.69980878  .00000319  00000+0  83759-3 0  9995
2 49189  87.9072 158.9010 0001810  72.6490 287.4837 13.13471716 99852
ONEWEB-0320             
1 49190U 21083E   23265.76751972  .00000063  00000+0  12756-3 0  9991
2 49190  87.9232 174.0607 0001830  72.1747 287.9585 13.18688977 98392
ONEWEB-0321             
1 49191U 21083F   23265.87848016  .00000035  00000+0  54245-4 0  9999
2 49191  87.9158 113.2095 0002057  84.9165 275.2203 13.20772707105050
ONEWEB-0322             
1 49192U 21083G   23265.77176738 -.00000248  00000+0 -71410-3 0  9994
2 49192  87.9068 158.8761 0002526  63.7459 296.3930 13.13474729 99854
ONEWEB-0324             
1 49193U 21083H   23265.98040280  .00000059  00000+0  11620-3 0  9995
2 49193  87.9230 173.9982 0001417  77.1248 283.0042 13.18685442 99726
ONEWEB-0325             
1 49194U 21083J   23265.83286392  .00000166  00000+0  38848-3 0  9996
2 49194  87.9415 173.9548 0001895  74.9971 285.1371 13.18682323 98438
ONEWEB-0326             
1 49195U 21083K   23265.99936260 -.00000127  00000+0 -35537-3 0  9991
2 49195  87.9232 173.9848 0001214  78.3381 281.7888 13.18685082 99720
